COMMENT,ORIGINATOR,NORAD_CAT_ID,OBJECT_NAME,OBJECT_TYPE,CLASSIFICATION_TYPE,INTLDES,EPOCH,EPOCH_MICROSECONDS,MEAN_MOTION,ECCENTRICITY,INCLINATION,RA_OF_ASC_NODE,ARG_OF_PERICENTER,MEAN_ANOMALY,EPHEMERIS_TYPE,ELEMENT_SET_NO,REV_AT_EPOCH,BSTAR,MEAN_MOTION_DOT,MEAN_MOTION_DDOT,FILE,TLE_LINE0,TLE_LINE1,TLE_LINE2,OBJECT_ID,OBJECT_NUMBER,SEMIMAJOR_AXIS,PERIOD,APOGEE,PERIGEE,DECAYED
"GENERATED VIA SPACETRACK.ORG API","18 SPCS","55087","SPACEBEE-167","PAYLOAD","U","23001CG","2024-01-19 16:59:43","390176","15.29986006","0.0011054","97.4473","83.7247","328.6153","31.4427","0","999","5807","0.0013074","0.0003809","0","4166409","0 SPACEBEE-167","1 55087U 23001CG  24019.70814109  .00038090  00000-0  13074-2 0  9994","2 55087  97.4473  83.7247 0011054 328.6153  31.4427 15.29986006 58078","2023-001CG","55087","6853.991","94.119","483.432","468.280","0"
"GENERATED VIA SPACETRACK.ORG API","18 SPCS","55087","SPACEBEE-167","PAYLOAD","U","23001CG","2024-01-19 21:42:15","539328","15.30000097","0.0011024","97.4472","83.9215","327.9915","32.0655","0","999","5810","0.0013088","0.00038147","0","4166429","0 SPACEBEE-167","1 55087U 23001CG  24019.90434652  .00038147  00000-0  13088-2 0  9995","2 55087  97.4472  83.9215 0011024 327.9915  32.0655 15.30000097 58102","2023-001CG","55087","6853.949","94.118","483.370","468.258","0"
"GENERATED VIA SPACETRACK.ORG API","18 SPCS","55087","SPACEBEE-167","PAYLOAD","U","23001CG","2024-01-20 14:58:12","96768","15.30050515","0.0011004","97.4474","84.6427","325.4884","34.5641","0","999","5821","0.0011369","0.00033157","0","4166981","0 SPACEBEE-167","1 55087U 23001CG  24020.62375112  .00033157  00000-0  11369-2 0  9997","2 55087  97.4474  84.6427 0011004 325.4884  34.5641 15.30050515 58217","2023-001CG","55087","6853.798","94.115","483.205","468.122","0"
"GENERATED VIA SPACETRACK.ORG API","18 SPCS","55087","SPACEBEE-167","PAYLOAD","U","23001CG","2024-01-20 18:06:33","68160","15.30059167","0.0011017","97.4472","84.7736","324.947","35.1044","0","999","5823","0.0011365","0.00033154","0","4167271","0 SPACEBEE-167","1 55087U 23001CG  24020.75454940  .00033154  00000-0  11365-2 0  9991","2 55087  97.4472  84.7736 0011017 324.9470  35.1044 15.30059167 58236","2023-001CG","55087","6853.773","94.114","483.188","468.087","0"
"GENERATED VIA SPACETRACK.ORG API","18 SPCS","55087","SPACEBEE-167","PAYLOAD","U","23001CG","2024-01-20 18:06:33","68160","15.30059167","0.0011017","97.4472","84.7736","324.947","35.1044","0","999","5823","0.0011365","0.00033154","0","4167280","0 SPACEBEE-167","1 55087U 23001CG  24020.75454940  .00033154  00000-0  11365-2 0  9991","2 55087  97.4472  84.7736 0011017 324.9470  35.1044 15.30059167 58236","2023-001CG","55087","6853.773","94.114","483.188","468.087","0"
"GENERATED VIA SPACETRACK.ORG API","18 SPCS","55087","SPACEBEE-167","PAYLOAD","U","23001CG","2024-01-21 03:31:35","574528","15.30089061","0.001106","97.4472","85.1669","323.6496","36.3992","0","999","5829","0.0012551","0.00036673","0","4167913","0 SPACEBEE-167","1 55087U 23001CG  24021.14693952  .00036673  00000-0  12551-2 0  9990","2 55087  97.4472  85.1669 0011060 323.6496  36.3992 15.30089061 58295","2023-001CG","55087","6853.683","94.112","483.129","467.968","0"
"GENERATED VIA SPACETRACK.ORG API","18 SPCS","55087","SPACEBEE-167","PAYLOAD","U","23001CG","2024-01-21 20:47:28","507488","15.30139157","0.0011051","97.447","85.8879","320.9766","39.0676","0","999","5840","0.0011737","0.00034332","0","4168132","0 SPACEBEE-167","1 55087U 23001CG  24021.86630217  .00034332  00000-0  11737-2 0  9999","2 55087  97.4470  85.8879 0011051 320.9766  39.0676 15.30139157 58407","2023-001CG","55087","6853.534","94.109","482.973","467.825","0"
"GENERATED VIA SPACETRACK.ORG API","18 SPCS","55087","SPACEBEE-167","PAYLOAD","U","23001CG","2024-01-22 03:04:09","70464","15.30158632","0.001107","97.447","86.1501","320.0268","40.0156","0","999","5844","0.0011915","0.00034877","0","4168427","0 SPACEBEE-167","1 55087U 23001CG  24022.12788276  .00034877  00000-0  11915-2 0  9990","2 55087  97.4470  86.1501 0011070 320.0268  40.0156 15.30158632 58440","2023-001CG","55087","6853.476","94.108","482.927","467.754","0"
"GENERATED VIA SPACETRACK.ORG API","18 SPCS","55087","SPACEBEE-167","PAYLOAD","U","23001CG","2024-01-22 03:04:09","70464","15.30158632","0.001107","97.447","86.1501","320.0268","40.0156","0","999","5844","0.0011915","0.00034877","0","4168698","0 SPACEBEE-167","1 55087U 23001CG  24022.12788276  .00034877  00000-0  11915-2 0  9990","2 55087  97.4470  86.1501 0011070 320.0268  40.0156 15.30158632 58440","2023-001CG","55087","6853.476","94.108","482.927","467.754","0"
"GENERATED VIA SPACETRACK.ORG API","18 SPCS","55087","SPACEBEE-167","PAYLOAD","U","23001CG","2024-01-22 17:11:39","293664","15.3020092","0.0010992","97.447","86.74","317.9044","42.1351","0","999","5853","0.0011754","0.00034447","0","4168971","0 SPACEBEE-167","1 55087U 23001CG  24022.71642701  .00034447  00000-0  11754-2 0  9991","2 55087  97.4470  86.7400 0010992 317.9044  42.1351 15.30200920 58531","2023-001CG","55087","6853.349","94.105","482.748","467.681","0"
"GENERATED VIA SPACETRACK.ORG API","18 SPCS","55087","SPACEBEE-167","PAYLOAD","U","23001CG","2024-01-23 04:10:48","423648","15.30236911","0.0010982","97.447","87.1986","316.3412","43.6959","0","999","5860","0.0012253","0.0003596","0","4169230","0 SPACEBEE-167","1 55087U 23001CG  24023.17417157  .00035960  00000-0  12253-2 0  9993","2 55087  97.4470  87.1986 0010982 316.3412  43.6959 15.30236911 58603","2023-001CG","55087","6853.242","94.103","482.633","467.581","0"
"GENERATED VIA SPACETRACK.ORG API","18 SPCS","55087","SPACEBEE-167","PAYLOAD","U","23001CG","2024-01-23 04:10:48","423648","15.30236911","0.0010982","97.447","87.1986","316.3412","43.6959","0","999","5860","0.0012253","0.0003596","0","4169493","0 SPACEBEE-167","1 55087U 23001CG  24023.17417157  .00035960  00000-0  12253-2 0  9993","2 55087  97.4470  87.1986 0010982 316.3412  43.6959 15.30236911 58603","2023-001CG","55087","6853.242","94.103","482.633","467.581","0"
"GENERATED VIA SPACETRACK.ORG API","18 SPCS","55087","SPACEBEE-167","PAYLOAD","U","23001CG","2024-01-23 16:44:06","278496","15.30278759","0.0010917","97.4469","87.7231","314.397","45.6376","0","999","5868","0.0012277","0.00036077","0","4169695","0 SPACEBEE-167","1 55087U 23001CG  24023.69729489  .00036077  00000-0  12277-2 0  9990","2 55087  97.4469  87.7231 0010917 314.3970  45.6376 15.30278759 58684","2023-001CG","55087","6853.117","94.101","482.463","467.500","0"
"GENERATED VIA SPACETRACK.ORG API","18 SPCS","55087","SPACEBEE-167","PAYLOAD","U","23001CG","2024-01-24 14:42:19","802880","15.30346606","0.0010804","97.4466","88.6415","310.7169","49.3133","0","999","5882","0.0012252","0.00036077","0","4170326","0 SPACEBEE-167","1 55087U 23001CG  24024.61272920  .00036077  00000-0  12252-2 0  9999","2 55087  97.4466  88.6415 0010804 310.7169  49.3133 15.30346606 58825","2023-001CG","55087","6852.914","94.096","482.183","467.375","0"
"GENERATED VIA SPACETRACK.ORG API","18 SPCS","55087","SPACEBEE-167","PAYLOAD","U","23001CG","2024-01-24 17:50:38","628960","15.30354331","0.0010783","97.4465","88.7725","310.1273","49.9022","0","999","5884","0.0011942","0.00035166","0","4170563","0 SPACEBEE-167","1 55087U 23001CG  24024.74350265  .00035166  00000-0  11942-2 0  9995","2 55087  97.4465  88.7725 0010783 310.1273  49.9022 15.30354331 58844","2023-001CG","55087","6852.891","94.096","482.146","467.367","0"
"GENERATED VIA SPACETRACK.ORG API","18 SPCS","55087","SPACEBEE-167","PAYLOAD","U","23001CG","2024-01-24 17:50:38","628960","15.30354331","0.0010783","97.4465","88.7725","310.1273","49.9022","0","999","5884","0.0011942","0.00035166","0","4170567","0 SPACEBEE-167","1 55087U 23001CG  24024.74350265  .00035166  00000-0  11942-2 0  9995","2 55087  97.4465  88.7725 0010783 310.1273  49.9022 15.30354331 58844","2023-001CG","55087","6852.891","94.096","482.146","467.367","0"
"GENERATED VIA SPACETRACK.ORG API","18 SPCS","55087","SPACEBEE-167","PAYLOAD","U","23001CG","2024-01-25 09:32:11","732064","15.30395935","0.00108","97.4461","89.4283","307.6918","52.3342","0","999","5894","0.0011312","0.00033342","0","4171093","0 SPACEBEE-167","1 55087U 23001CG  24025.39735801  .00033342  00000-0  11312-2 0  9995","2 55087  97.4461  89.4283 0010800 307.6918  52.3342 15.30395935 58943","2023-001CG","55087","6852.767","94.093","482.033","467.231","0"
"GENERATED VIA SPACETRACK.ORG API","18 SPCS","55087","SPACEBEE-167","PAYLOAD","U","23001CG","2024-01-25 17:22:57","735840","15.30416552","0.0010777","97.446","89.756","306.526","53.4987","0","999","5899","0.0011184","0.00032983","0","4171361","0 SPACEBEE-167","1 55087U 23001CG  24025.72427935  .00032983  00000-0  11184-2 0  9995","2 55087  97.4460  89.7560 0010777 306.5260  53.4987 15.30416552 58995","2023-001CG","55087","6852.706","94.092","481.956","467.185","0"
"GENERATED VIA SPACETRACK.ORG API","18 SPCS","55087","SPACEBEE-167","PAYLOAD","U","23001CG","2024-01-26 02:47:52","384992","15.30446548","0.0010743","97.4457","90.1494","305.038","54.9852","0","999","5905","0.0013307","0.00039327","0","4171612","0 SPACEBEE-167","1 55087U 23001CG  24026.11657853  .00039327  00000-0  13307-2 0  9991","2 55087  97.4457  90.1494 0010743 305.0380  54.9852 15.30446548 59056","2023-001CG","55087","6852.616","94.090","481.843","467.119","0"
"GENERATED VIA SPACETRACK.ORG API","18 SPCS","55087","SPACEBEE-167","PAYLOAD","U","23001CG","2024-01-26 02:47:52","384992","15.30446548","0.0010743","97.4457","90.1494","305.038","54.9852","0","999","5905","0.0013307","0.00039327","0","4171858","0 SPACEBEE-167","1 55087U 23001CG  24026.11657853  .00039327  00000-0  13307-2 0  9991","2 55087  97.4457  90.1494 0010743 305.0380  54.9852 15.30446548 59056","2023-001CG","55087","6852.616","94.090","481.843","467.119","0"
